ORBCOMM-X               
1 21576U 91050C   25365.39556664  .00000656  00000+0  20695-3 0  9992
2 21576  98.3205  67.7461 0002773 325.0385  35.0623 14.43453099810567
ORBCOMM FM01            
1 23545U 95017A   25365.24194019  .00013878  00000+0  13247-2 0  9997
2 23545  69.9630 301.6691 0004601 323.0356  37.0483 14.93407351641893
ORBCOMM FM02            
1 23546U 95017B   25365.29675640  .00016136  00000+0  14743-2 0  9999
2 23546  69.9644 320.0454 0005802 335.7077  24.3806 14.95084413641570
ORBCOMM FM08            
1 25112U 97084A   25365.33570805  .00004017  00000+0  11401-2 0  9991
2 25112  45.0118 140.8990 0007443 174.2119 185.8820 14.46670924469910
ORBCOMM FM10            
1 25113U 97084B   25365.55515363  .00003816  00000+0  10912-2 0  9996
2 25113  45.0129 142.5936 0005447 146.7228 213.3967 14.46413598645084
ORBCOMM FM11            
1 25114U 97084C   25365.66362005  .00003863  00000+0  11099-2 0  9991
2 25114  45.0117 143.0715 0006289 146.8751 213.2495 14.46159947470053
ORBCOMM FM12            
1 25115U 97084D   25365.34695903  .00003116  00000+0  90297-3 0  9992
2 25115  45.0112 144.3214 0005329 144.5113 215.6094 14.46176005469804
ORBCOMM FM09            
1 25116U 97084E   25365.39819950  .00003421  00000+0  99062-3 0  9996
2 25116  45.0127 145.2273 0006269 131.5923 228.5467 14.46012222470017
